{
    "links": {
        "self": "http://www.neowsapp.com/rest/v1/neo/3578977?api_key=iIulBulltgU6a56xZRHN4H3l9WmuAYTsLGpBGhQ2"
    },
    "id": "3578977",
    "neo_reference_id": "3578977",
    "name": "(2011 SR26)",
    "designation": "2011 SR26",
    "nasa_jpl_url": "http://ssd.jpl.nasa.gov/sbdb.cgi?sstr=3578977",
    "absolute_magnitude_h": 24.0,
    "estimated_diameter": {
        "kilometers": {
            "estimated_diameter_min": 0.0421264611,
            "estimated_diameter_max": 0.0941976306
        },
        "meters": {
            "estimated_diameter_min": 42.1264610556,
            "estimated_diameter_max": 94.1976305719
        },
        "miles": {
            "estimated_diameter_min": 0.0261761612,
            "estimated_diameter_max": 0.0585316759
        },
        "feet": {
            "estimated_diameter_min": 138.2101784897,
            "estimated_diameter_max": 309.0473542854
        }
    },
    "is_potentially_hazardous_asteroid": false,
    "close_approach_data": [
        {
            "close_approach_date": "1950-09-19",
            "close_approach_date_full": "1950-Sep-19 15:02",
            "epoch_date_close_approach": -608547480000,
            "relative_velocity": {
                "kilometers_per_second": "12.9992204724",
                "kilometers_per_hour": "46797.193700699",
                "miles_per_hour": "29077.9562747482"
            },
            "miss_distance": {
                "astronomical": "0.1133650539",
                "lunar": "44.0990059671",
                "kilometers": "16959170.595875193",
                "miles": "10537939.9575079434"
            },
            "orbiting_body": "Earth"
        },
        {
            "close_approach_date": "2011-09-20",
            "close_approach_date_full": "2011-Sep-20 02:20",
            "epoch_date_close_approach": 1316485200000,
            "relative_velocity": {
                "kilometers_per_second": "12.9955741232",
                "kilometers_per_hour": "46784.0668433713",
                "miles_per_hour": "29069.7997560937"
            },
            "miss_distance": {
                "astronomical": "0.113364929",
                "lunar": "44.098957381",
                "kilometers": "16959151.91110123",
                "miles": "10537928.347327774"
            },
            "orbiting_body": "Earth"
        },
        {
            "close_approach_date": "2072-09-19",
            "close_approach_date_full": "2072-Sep-19 12:05",
            "epoch_date_close_approach": 3241512300000,
            "relative_velocity": {
                "kilometers_per_second": "12.9849463258",
                "kilometers_per_hour": "46745.8067729372",
                "miles_per_hour": "29046.0264362176"
            },
            "miss_distance": {
                "astronomical": "0.1136250599",
                "lunar": "44.2001483011",
                "kilometers": "16998066.939662413",
                "miles": "10562109.0248027794"
            },
            "orbiting_body": "Earth"
        }
    ],
    "orbital_data": {
        "orbit_id": "5",
        "orbit_determination_date": "2017-04-06 08:52:44",
        "first_observation_date": "2011-09-21",
        "last_observation_date": "2011-09-25",
        "data_arc_in_days": 4,
        "observations_used": 23,
        "orbit_uncertainty": "8",
        "minimum_orbit_intersection": ".113363",
        "jupiter_tisserand_invariant": "5.064",
        "epoch_osculation": "2455827.5",
        "eccentricity": ".1063704907547951",
        "semi_major_axis": "1.243318010288139",
        "inclination": "25.34483651432921",
        "ascending_node_longitude": "176.064394279956",
        "orbital_period": "506.3744260940035",
        "perihelion_distance": "1.111065663369514",
        "perihelion_argument": "200.909825084321",
        "aphelion_distance": "1.375570357206763",
        "perihelion_time": "2455847.502257353463",
        "mean_anomaly": "345.77966762107",
        "mean_motion": ".710936377211849",
        "equinox": "J2000",
        "orbit_class": {
            "orbit_class_type": "AMO",
            "orbit_class_description": "Near-Earth asteroid orbits similar to that of 1221 Amor",
            "orbit_class_range": "1.017 AU < q (perihelion) < 1.3 AU"
        }
    },
    "is_sentry_object": false
}